[{"OBJECT_NAME":"STARLINK-33612","OBJECT_ID":"2025-057U","EPOCH":"2026-03-09T22:45:21.704832","MEAN_MOTION":15.27619291,"ECCENTRICITY":0.00014735,"INCLINATION":43.0053,"RA_OF_ASC_NODE":29.6754,"ARG_OF_PERICENTER":249.2291,"MEAN_ANOMALY":110.8403,"EPHEMERIS_TYPE":0,"CLASSIFICATION_TYPE":"U","NORAD_CAT_ID":63325,"ELEMENT_SET_NO":999,"REV_AT_EPOCH":5581,"BSTAR":0.0022596438,"MEAN_MOTION_DOT":0.00062522,"MEAN_MOTION_DDOT":0},{"OBJECT_NAME":"TRANSPORTER-1 OBJECT AA","OBJECT_ID":"2021-006AA","EPOCH":"2026-03-09T22:58:14.761920","MEAN_MOTION":15.29982294,"ECCENTRICITY":0.00086604,"INCLINATION":97.2381,"RA_OF_ASC_NODE":112.457,"ARG_OF_PERICENTER":185.709,"MEAN_ANOMALY":174.4054,"EPHEMERIS_TYPE":0,"CLASSIFICATION_TYPE":"U","NORAD_CAT_ID":47437,"ELEMENT_SET_NO":999,"REV_AT_EPOCH":28414,"BSTAR":0.0002197941,"MEAN_MOTION_DOT":6.312e-5,"MEAN_MOTION_DDOT":0}]
